LEMUR-2-PETERG          
1 42841U 17042S   26068.48235713  .00023240  00000+0  81076-3 0  9993
2 42841  97.3980 253.6596 0003700 341.6938  18.4169 15.29611459473171
STARLINK-34066          
1 63909U 25095V   26068.34532877  .00044320  00000+0  16072-2 0  9999
2 63909  43.0035 178.2952 0003444 288.9698  71.0780 15.27642769 47725
